NORAD_CAT_ID,OBJECT_NAME,OBJECT_TYPE,EPOCH,MEAN_MOTION,ECCENTRICITY,INCLINATION,RA_OF_ASC_NODE,ARG_OF_PERICENTER,MEAN_ANOMALY,BSTAR,MEAN_MOTION_DOT,MEAN_MOTION_DDOT,TLE_LINE0,TLE_LINE1,TLE_LINE2,SEMIMAJOR_AXIS,PERIOD,APOGEE,PERIGEE,DECAYED
52349.0,STARLINK-3819,PAYLOAD,2023-09-30 07:38:25,15.08858303,0.0001683,53.2147,240.6386,111.3063,248.8108,0.00019934,2.887e-05,0.0,0 STARLINK-3819,1 52349U 22045U   23273.31835343  .00002887  00000-0  19934-3 0  9997,2 52349  53.2147 240.6386 0001683 111.3063 248.8108 15.08858303 81213,6917.824,95.436,540.854,538.525,0.0
52349.0,STARLINK-3819,PAYLOAD,2023-10-01 04:18:27,15.08840519,0.0001459,53.2151,236.7734,97.8228,262.2929,-6.6146e-05,-1.341e-05,0.0,0 STARLINK-3819,1 52349U 22045U   23274.17948296 -.00001341  00000-0 -66146-4 0  9998,2 52349  53.2151 236.7734 0001459  97.8228 262.2929 15.08840519 81348,6917.879,95.438,540.753,538.734,0.0
52349.0,STARLINK-3819,PAYLOAD,2023-10-01 07:29:13,15.08840169,0.0001454,53.2151,236.1786,98.8427,261.273,-5.3202e-05,-1.135e-05,0.0,0 STARLINK-3819,1 52349U 22045U   23274.31196323 -.00001135  00000-0 -53202-4 0  9990,2 52349  53.2151 236.1786 0001454  98.8427 261.2730 15.08840169 81368,6917.88,95.438,540.751,538.739,0.0
52349.0,STARLINK-3819,PAYLOAD,2023-10-02 07:20:00,15.08846891,0.0001357,53.2159,231.7188,94.1501,265.9646,0.00029206,4.364e-05,0.0,0 STARLINK-3819,1 52349U 22045U   23275.30556436  .00004364  00000-0  29206-3 0  9996,2 52349  53.2159 231.7188 0001357  94.1501 265.9646 15.08846891 81519,6917.859,95.437,540.663,538.786,0.0
52349.0,STARLINK-3819,PAYLOAD,2023-10-02 16:52:19,15.08838097,0.0001432,53.216,229.936,103.7647,256.3505,0.00019415,2.803e-05,0.0,0 STARLINK-3819,1 52349U 22045U   23275.70300881  .00002803  00000-0  19415-3 0  9998,2 52349  53.2160 229.9360 0001432 103.7647 256.3505 15.08838097 81577,6917.886,95.438,540.742,538.761,0.0
52349.0,STARLINK-3819,PAYLOAD,2023-10-03 04:00:01,15.08855125,0.0001351,53.2159,227.856,101.1283,258.9861,0.00051816,7.972e-05,0.0,0 STARLINK-3819,1 52349U 22045U   23276.16668333  .00007972  00000-0  51816-3 0  9991,2 52349  53.2159 227.8560 0001351 101.1283 258.9861 15.08855125 81644,6917.834,95.437,540.634,538.765,0.0
52349.0,STARLINK-3819,PAYLOAD,2023-10-03 13:32:20,15.08847554,0.0001198,53.216,226.0728,99.5848,260.5279,0.00028575,4.264e-05,0.0,0 STARLINK-3819,1 52349U 22045U   23276.56412353  .00004264  00000-0  28575-3 0  9991,2 52349  53.2160 226.0728 0001198  99.5848 260.5279 15.08847554 81705,6917.857,95.437,540.551,538.894,0.0
52349.0,STARLINK-3819,PAYLOAD,2023-10-03 23:04:39,15.08829298,0.0001686,53.2161,224.2847,79.7843,280.3339,-0.00021259,-3.669e-05,0.0,0 STARLINK-3819,1 52349U 22045U   23276.96157186 -.00003669  00000-0 -21259-3 0  9997,2 52349  53.2161 224.2847 0001686  79.7843 280.3339 15.08829298 81763,6917.913,95.438,540.944,538.612,0.0
52349.0,STARLINK-3819,PAYLOAD,2023-10-04 13:23:08,15.08845062,0.0002398,53.2142,221.6079,77.1062,283.0198,0.00023569,3.465e-05,0.0,0 STARLINK-3819,1 52349U 22045U   23277.55773202  .00003465  00000-0  23569-3 0  9994,2 52349  53.2142 221.6079 0002398  77.1062 283.0198 15.08845062 81856,6917.865,95.437,541.389,538.071,0.0
52349.0,STARLINK-3819,PAYLOAD,2023-10-05 13:13:54,15.08843004,9.23e-05,53.2153,217.1508,101.4346,258.675,0.00041042,6.251e-05,0.0,0 STARLINK-3819,1 52349U 22045U   23278.55132763  .00006251  00000-0  41042-3 0  9998,2 52349  53.2153 217.1508 0000923 101.4346 258.6750 15.08843004 82007,6917.871,95.437,540.375,539.098,0.0
52349.0,STARLINK-3819,PAYLOAD,2023-10-06 13:04:42,15.08841849,0.0001471,53.2155,212.6911,72.7649,287.3504,0.00022665,3.321e-05,0.0,0 STARLINK-3819,1 52349U 22045U   23279.54493151  .00003321  00000-0  22665-3 0  9994,2 52349  53.2155 212.6911 0001471  72.7649 287.3504 15.08841849 82159,6917.875,95.437,540.757,538.722,0.0
52349.0,STARLINK-3819,PAYLOAD,2023-10-07 04:58:33,15.08838896,0.0001658,53.215,209.7143,88.3684,271.7498,0.00018878,2.718e-05,0.0,0 STARLINK-3819,1 52349U 22045U   23280.20733599  .00002718  00000-0  18878-3 0  9992,2 52349  53.2150 209.7143 0001658  88.3684 271.7498 15.08838896 82255,6917.884,95.438,540.896,538.602,0.0
52349.0,STARLINK-3819,PAYLOAD,2023-10-07 12:55:29,15.08848421,0.0001639,53.2154,208.2296,83.2698,276.848,0.00043812,6.693e-05,0.0,0 STARLINK-3819,1 52349U 22045U   23280.53853333  .00006693  00000-0  43812-3 0  9999,2 52349  53.2154 208.2296 0001639  83.2698 276.8480 15.08848421 82308,6917.855,95.437,540.853,538.586,0.0
52349.0,STARLINK-3819,PAYLOAD,2023-10-07 22:27:48,15.08851901,0.0001814,53.2157,206.4455,80.5216,279.5981,0.00041206,6.278e-05,0.0,0 STARLINK-3819,1 52349U 22045U   23280.93597318  .00006278  00000-0  41206-3 0  9995,2 52349  53.2157 206.4455 0001814  80.5216 279.5981 15.08851901 82368,6917.844,95.437,540.964,538.454,0.0
52349.0,STARLINK-3819,PAYLOAD,2023-10-08 01:38:33,15.08861081,0.0001391,53.2166,205.8509,94.335,265.7801,0.00067173,0.00010425,0.0,0 STARLINK-3819,1 52349U 22045U   23281.06844735  .00010425  00000-0  67173-3 0  9998,2 52349  53.2166 205.8509 0001391  94.3350 265.7801 15.08861081 82383,6917.816,95.436,540.643,538.719,0.0
52349.0,STARLINK-3819,PAYLOAD,2023-10-08 04:49:19,15.0887123,0.000183,53.2162,205.2531,100.9273,259.1925,0.0010172,0.00015952,0.0,0 STARLINK-3819,1 52349U 22045U   23281.20092502  .00015952  00000-0  10172-2 0  9997,2 52349  53.2162 205.2531 0001830 100.9273 259.1925 15.08871230 82408,6917.785,95.436,540.916,538.384,0.0
52349.0,STARLINK-3819,PAYLOAD,2023-10-09 01:29:20,15.08851511,0.0001468,53.2162,201.3885,107.1389,252.9764,0.00042595,6.5e-05,0.0,0 STARLINK-3819,1 52349U 22045U   23282.06204520  .00006500  00000-0  42595-3 0  9991,2 52349  53.2162 201.3885 0001468 107.1389 252.9764 15.08851511 82537,6917.845,95.437,540.726,538.695,0.0
52349.0,STARLINK-3819,PAYLOAD,2023-10-09 04:40:06,15.08854369,0.0001332,53.2163,200.7932,95.1834,264.9311,0.00064708,0.00010029,0.0,0 STARLINK-3819,1 52349U 22045U   23282.19452495  .00010029  00000-0  64708-3 0  9992,2 52349  53.2163 200.7932 0001332  95.1834 264.9311 15.08854369 82552,6917.836,95.437,540.623,538.78,0.0
52349.0,STARLINK-3819,PAYLOAD,2023-10-09 18:58:35,15.08826487,0.0001656,53.2173,198.1163,106.8316,253.2857,0.00055532,8.558e-05,0.0,0 STARLINK-3819,1 52349U 22045U   23282.79069304  .00008558  00000-0  55532-3 0  9990,2 52349  53.2173 198.1163 0001656 106.8316 253.2857 15.08826487 82649,6917.922,95.438,540.932,538.641,0.0
52349.0,STARLINK-3819,PAYLOAD,2023-10-09 22:09:22,15.08835665,0.0001623,53.216,197.5175,113.6543,246.462,0.00050864,7.815e-05,0.0,0 STARLINK-3819,1 52349U 22045U   23282.92317343  .00007815  00000-0  50864-3 0  9992,2 52349  53.2160 197.5175 0001623 113.6543 246.4620 15.08835665 82665,6917.894,95.438,540.881,538.636,0.0
52349.0,STARLINK-3819,PAYLOAD,2023-10-10 10:52:27,15.08833341,0.0001375,53.2168,195.1437,76.557,283.5575,0.00058771,9.076e-05,0.0,0 STARLINK-3819,1 52349U 22045U   23283.45309709  .00009076  00000-0  58771-3 0  9994,2 52349  53.2168 195.1437 0001375  76.5570 283.5575 15.08833341 82748,6917.901,95.438,540.717,538.815,0.0
52349.0,STARLINK-3819,PAYLOAD,2023-10-10 22:00:09,15.08835374,0.0001203,53.2167,193.0631,82.6036,277.5093,0.00063045,9.759e-05,0.0,0 STARLINK-3819,1 52349U 22045U   23283.91677927  .00009759  00000-0  63045-3 0  9993,2 52349  53.2167 193.0631 0001203  82.6036 277.5093 15.08835374 82819,6917.895,95.438,540.592,538.927,0.0
52349.0,STARLINK-3819,PAYLOAD,2023-10-11 02:46:18,15.08852115,0.0001268,53.2173,192.1729,94.4507,265.663,0.00067477,0.00010471,0.0,0 STARLINK-3819,1 52349U 22045U   23284.11549495  .00010471  00000-0  67477-3 0  9990,2 52349  53.2173 192.1729 0001268  94.4507 265.6630 15.08852115 82849,6917.843,95.437,540.586,538.831,0.0
52349.0,STARLINK-3819,PAYLOAD,2023-10-11 10:43:14,15.08835497,0.0001582,53.2168,190.6852,85.6654,274.4519,0.00034236,5.164e-05,0.0,0 STARLINK-3819,1 52349U 22045U   23284.44670105  .00005164  00000-0  34236-3 0  9999,2 52349  53.2168 190.6852 0001582  85.6654 274.4519 15.08835497 82890,6917.894,95.438,540.854,538.665,0.0
52349.0,STARLINK-3819,PAYLOAD,2023-10-12 02:37:06,15.08846225,0.0001357,53.2166,187.7105,98.4682,261.6464,0.00043309,6.613e-05,0.0,0 STARLINK-3819,1 52349U 22045U   23285.10909978  .00006613  00000-0  43309-3 0  9997,2 52349  53.2166 187.7105 0001357  98.4682 261.6464 15.08846225 82998,6917.861,95.437,540.665,538.788,0.0
52349.0,STARLINK-3819,PAYLOAD,2023-10-12 21:41:44,15.08844709,0.0001698,53.2168,184.1432,86.7798,273.3388,0.00031315,4.7e-05,0.0,0 STARLINK-3819,1 52349U 22045U   23285.90398264  .00004700  00000-0  31315-3 0  9994,2 52349  53.2168 184.1432 0001698  86.7798 273.3388 15.08844709 83115,6917.866,95.437,540.906,538.556,0.0
52349.0,STARLINK-3819,PAYLOAD,2023-10-13 02:27:53,15.08855777,0.0001393,53.2163,183.2513,95.6227,264.4924,0.00053275,8.205e-05,0.0,0 STARLINK-3819,1 52349U 22045U   23286.10269801  .00008205  00000-0  53275-3 0  9994,2 52349  53.2163 183.2513 0001393  95.6227 264.4924 15.08855777 83145,6917.832,95.437,540.661,538.734,0.0
52349.0,STARLINK-3819,PAYLOAD,2023-10-13 21:32:30,15.08851143,0.000193,53.2161,179.6833,128.4606,231.6559,0.00032858,4.947e-05,0.0,0 STARLINK-3819,1 52349U 22045U   23286.89757685  .00004947  00000-0  32858-3 0  9995,2 52349  53.2161 179.6833 0001930 128.4606 231.6559 15.08851143 83266,6917.846,95.437,541.046,538.376,0.0
52349.0,STARLINK-3819,PAYLOAD,2023-10-14 00:43:16,15.08860884,0.0001461,53.2155,179.0882,87.3069,272.8091,0.00081799,0.00012762,0.0,0 STARLINK-3819,1 52349U 22045U   23287.03005662  .00012762  00000-0  81799-3 0  9995,2 52349  53.2155 179.0882 0001461  87.3069 272.8091 15.08860884 83284,6917.817,95.436,540.692,538.671,0.0
52349.0,STARLINK-3819,PAYLOAD,2023-10-14 10:15:35,15.08848528,0.0001489,53.2167,177.3045,84.4342,275.682,0.00043637,6.665e-05,0.0,0 STARLINK-3819,1 52349U 22045U   23287.42749887  .00006665  00000-0  43637-3 0  9996,2 52349  53.2167 177.3045 0001489  84.4342 275.6820 15.08848528 83340,6917.854,95.437,540.749,538.689,0.0
